[{"OBJECT_NAME":"CUBESX-HSE 3 (RS42S)","OBJECT_ID":"2023-091N","EPOCH":"2026-03-09T22:57:25.321248","MEAN_MOTION":15.286147,"ECCENTRICITY":0.00127191,"INCLINATION":97.5203,"RA_OF_ASC_NODE":133.4295,"ARG_OF_PERICENTER":86.5376,"MEAN_ANOMALY":273.7318,"EPHEMERIS_TYPE":0,"CLASSIFICATION_TYPE":"U","NORAD_CAT_ID":57178,"ELEMENT_SET_NO":999,"REV_AT_EPOCH":14925,"BSTAR":0.00059055694,"MEAN_MOTION_DOT":0.00016417,"MEAN_MOTION_DDOT":0},{"OBJECT_NAME":"STARLINK-31741","OBJECT_ID":"2024-074S","EPOCH":"2026-03-09T03:19:28.512480","MEAN_MOTION":15.27586163,"ECCENTRICITY":0.00017149,"INCLINATION":43.0023,"RA_OF_ASC_NODE":346.3262,"ARG_OF_PERICENTER":275.1195,"MEAN_ANOMALY":84.9461,"EPHEMERIS_TYPE":0,"CLASSIFICATION_TYPE":"U","NORAD_CAT_ID":59550,"ELEMENT_SET_NO":999,"REV_AT_EPOCH":10593,"BSTAR":0.00012593429,"MEAN_MOTION_DOT":3.205e-5,"MEAN_MOTION_DDOT":0}]
